<?xml version="1.0" encoding="UTF-8"?>
<ndm xmlns:xsi="http://www.w3.org/2001/XMLSchema-instance" xsi:noNamespaceSchemaLocation="https://sanaregistry.org/r/ndmxml_unqualified/ndmxml-2.0.0-master-2.0.xsd">
<omm id="CCSDS_OMM_VERS" version="2.0">
<header><CREATION_DATE/><ORIGINATOR/></header><body><segment><metadata><OBJECT_NAME>KUIPER-00044</OBJECT_NAME><OBJECT_ID>2025-134F</OBJECT_ID><CENTER_NAME>EARTH</CENTER_NAME><REF_FRAME>TEME</REF_FRAME><TIME_SYSTEM>UTC</TIME_SYSTEM><MEAN_ELEMENT_THEORY>SGP4</MEAN_ELEMENT_THEORY></metadata><data><meanElements><EPOCH>2025-09-10T13:56:07.822176</EPOCH><MEAN_MOTION>14.79893365</MEAN_MOTION><ECCENTRICITY>.00144174</ECCENTRICITY><INCLINATION>51.8990</INCLINATION><RA_OF_ASC_NODE>323.0407</RA_OF_ASC_NODE><ARG_OF_PERICENTER>39.3097</ARG_OF_PERICENTER><MEAN_ANOMALY>320.8909</MEAN_ANOMALY></meanElements><tleParameters><EPHEMERIS_TYPE>0</EPHEMERIS_TYPE><CLASSIFICATION_TYPE>U</CLASSIFICATION_TYPE><NORAD_CAT_ID>64505</NORAD_CAT_ID><ELEMENT_SET_NO>999</ELEMENT_SET_NO><REV_AT_EPOCH>1321</REV_AT_EPOCH><BSTAR>.40908325E-3</BSTAR><MEAN_MOTION_DOT>.2897E-4</MEAN_MOTION_DOT><MEAN_MOTION_DDOT>0</MEAN_MOTION_DDOT></tleParameters></data></segment></body></omm>
<omm id="CCSDS_OMM_VERS" version="2.0">
<header><CREATION_DATE/><ORIGINATOR/></header><body><segment><metadata><OBJECT_NAME>KUIPER-00046</OBJECT_NAME><OBJECT_ID>2025-134G</OBJECT_ID><CENTER_NAME>EARTH</CENTER_NAME><REF_FRAME>TEME</REF_FRAME><TIME_SYSTEM>UTC</TIME_SYSTEM><MEAN_ELEMENT_THEORY>SGP4</MEAN_ELEMENT_THEORY></metadata><data><meanElements><EPOCH>2025-09-10T20:00:01.999872</EPOCH><MEAN_MOTION>14.81217581</MEAN_MOTION><ECCENTRICITY>.00114783</ECCENTRICITY><INCLINATION>51.8968</INCLINATION><RA_OF_ASC_NODE>318.2967</RA_OF_ASC_NODE><ARG_OF_PERICENTER>47.4754</ARG_OF_PERICENTER><MEAN_ANOMALY>245.9842</MEAN_ANOMALY></meanElements><tleParameters><EPHEMERIS_TYPE>0</EPHEMERIS_TYPE><CLASSIFICATION_TYPE>U</CLASSIFICATION_TYPE><NORAD_CAT_ID>64506</NORAD_CAT_ID><ELEMENT_SET_NO>999</ELEMENT_SET_NO><REV_AT_EPOCH>567</REV_AT_EPOCH><BSTAR>-.84952726E-2</BSTAR><MEAN_MOTION_DOT>-.66436E-3</MEAN_MOTION_DOT><MEAN_MOTION_DDOT>0</MEAN_MOTION_DDOT></tleParameters></data></segment></body></omm>
<omm id="CCSDS_OMM_VERS" version="2.0">
<header><CREATION_DATE/><ORIGINATOR/></header><body><segment><metadata><OBJECT_NAME>KUIPER-00047</OBJECT_NAME><OBJECT_ID>2025-134H</OBJECT_ID><CENTER_NAME>EARTH</CENTER_NAME><REF_FRAME>TEME</REF_FRAME><TIME_SYSTEM>UTC</TIME_SYSTEM><MEAN_ELEMENT_THEORY>SGP4</MEAN_ELEMENT_THEORY></metadata><data><meanElements><EPOCH>2025-09-10T04:35:07.837152</EPOCH><MEAN_MOTION>15.35442434</MEAN_MOTION><ECCENTRICITY>.00120791</ECCENTRICITY><INCLINATION>51.8623</INCLINATION><RA_OF_ASC_NODE>311.8249</RA_OF_ASC_NODE><ARG_OF_PERICENTER>48.7803</ARG_OF_PERICENTER><MEAN_ANOMALY>311.4222</MEAN_ANOMALY></meanElements><tleParameters><EPHEMERIS_TYPE>0</EPHEMERIS_TYPE><CLASSIFICATION_TYPE>U</CLASSIFICATION_TYPE><NORAD_CAT_ID>64507</NORAD_CAT_ID><ELEMENT_SET_NO>999</ELEMENT_SET_NO><REV_AT_EPOCH>1333</REV_AT_EPOCH><BSTAR>.75803778E-3</BSTAR><MEAN_MOTION_DOT>.26267E-3</MEAN_MOTION_DOT><MEAN_MOTION_DDOT>0</MEAN_MOTION_DDOT></tleParameters></data></segment></body></omm>
<omm id="CCSDS_OMM_VERS" version="2.0">
<header><CREATION_DATE/><ORIGINATOR/></header><body><segment><metadata><OBJECT_NAME>KUIPER-00048</OBJECT_NAME><OBJECT_ID>2025-134J</OBJECT_ID><CENTER_NAME>EARTH</CENTER_NAME><REF_FRAME>TEME</REF_FRAME><TIME_SYSTEM>UTC</TIME_SYSTEM><MEAN_ELEMENT_THEORY>SGP4</MEAN_ELEMENT_THEORY></metadata><data><meanElements><EPOCH>2025-09-09T21:21:17.900928</EPOCH><MEAN_MOTION>15.37842741</MEAN_MOTION><ECCENTRICITY>.00059832</ECCENTRICITY><INCLINATION>51.8780</INCLINATION><RA_OF_ASC_NODE>312.1884</RA_OF_ASC_NODE><ARG_OF_PERICENTER>32.5010</ARG_OF_PERICENTER><MEAN_ANOMALY>327.6345</MEAN_ANOMALY></meanElements><tleParameters><EPHEMERIS_TYPE>0</EPHEMERIS_TYPE><CLASSIFICATION_TYPE>U</CLASSIFICATION_TYPE><NORAD_CAT_ID>64508</NORAD_CAT_ID><ELEMENT_SET_NO>999</ELEMENT_SET_NO><REV_AT_EPOCH>1330</REV_AT_EPOCH><BSTAR>.55407194E-3</BSTAR><MEAN_MOTION_DOT>.20604E-3</MEAN_MOTION_DOT><MEAN_MOTION_DDOT>0</MEAN_MOTION_DDOT></tleParameters></data></segment></body></omm>
<omm id="CCSDS_OMM_VERS" version="2.0">
<header><CREATION_DATE/><ORIGINATOR/></header><body><segment><metadata><OBJECT_NAME>KUIPER-00049</OBJECT_NAME><OBJECT_ID>2025-134K</OBJECT_ID><CENTER_NAME>EARTH</CENTER_NAME><REF_FRAME>TEME</REF_FRAME><TIME_SYSTEM>UTC</TIME_SYSTEM><MEAN_ELEMENT_THEORY>SGP4</MEAN_ELEMENT_THEORY></metadata><data><meanElements><EPOCH>2025-09-10T18:50:12.687648</EPOCH><MEAN_MOTION>15.23737788</MEAN_MOTION><ECCENTRICITY>.00077547</ECCENTRICITY><INCLINATION>51.8741</INCLINATION><RA_OF_ASC_NODE>309.1792</RA_OF_ASC_NODE><ARG_OF_PERICENTER>33.2356</ARG_OF_PERICENTER><MEAN_ANOMALY>326.9110</MEAN_ANOMALY></meanElements><tleParameters><EPHEMERIS_TYPE>0</EPHEMERIS_TYPE><CLASSIFICATION_TYPE>U</CLASSIFICATION_TYPE><NORAD_CAT_ID>64509</NORAD_CAT_ID><ELEMENT_SET_NO>999</ELEMENT_SET_NO><REV_AT_EPOCH>1342</REV_AT_EPOCH><BSTAR>-.12303559E-1</BSTAR><MEAN_MOTION_DOT>-.288999E-2</MEAN_MOTION_DOT><MEAN_MOTION_DDOT>0</MEAN_MOTION_DDOT></tleParameters></data></segment></body></omm>
<omm id="CCSDS_OMM_VERS" version="2.0">
<header><CREATION_DATE/><ORIGINATOR/></header><body><segment><metadata><OBJECT_NAME>KUIPER-00050</OBJECT_NAME><OBJECT_ID>2025-134L</OBJECT_ID><CENTER_NAME>EARTH</CENTER_NAME><REF_FRAME>TEME</REF_FRAME><TIME_SYSTEM>UTC</TIME_SYSTEM><MEAN_ELEMENT_THEORY>SGP4</MEAN_ELEMENT_THEORY></metadata><data><meanElements><EPOCH>2025-09-10T19:04:30.988704</EPOCH><MEAN_MOTION>15.19222574</MEAN_MOTION><ECCENTRICITY>.00077593</ECCENTRICITY><INCLINATION>51.8757</INCLINATION><RA_OF_ASC_NODE>309.9929</RA_OF_ASC_NODE><ARG_OF_PERICENTER>62.2073</ARG_OF_PERICENTER><MEAN_ANOMALY>297.9692</MEAN_ANOMALY></meanElements><tleParameters><EPHEMERIS_TYPE>0</EPHEMERIS_TYPE><CLASSIFICATION_TYPE>U</CLASSIFICATION_TYPE><NORAD_CAT_ID>64510</NORAD_CAT_ID><ELEMENT_SET_NO>999</ELEMENT_SET_NO><REV_AT_EPOCH>1341</REV_AT_EPOCH><BSTAR>-.13473714E-1</BSTAR><MEAN_MOTION_DOT>-.277479E-2</MEAN_MOTION_DOT><MEAN_MOTION_DDOT>0</MEAN_MOTION_DDOT></tleParameters></data></segment></body></omm>
<omm id="CCSDS_OMM_VERS" version="2.0">
<header><CREATION_DATE/><ORIGINATOR/></header><body><segment><metadata><OBJECT_NAME>KUIPER-00051</OBJECT_NAME><OBJECT_ID>2025-134M</OBJECT_ID><CENTER_NAME>EARTH</CENTER_NAME><REF_FRAME>TEME</REF_FRAME><TIME_SYSTEM>UTC</TIME_SYSTEM><MEAN_ELEMENT_THEORY>SGP4</MEAN_ELEMENT_THEORY></metadata><data><meanElements><EPOCH>2025-09-10T20:00:01.999872</EPOCH><MEAN_MOTION>15.27989503</MEAN_MOTION><ECCENTRICITY>.00066049</ECCENTRICITY><INCLINATION>51.8782</INCLINATION><RA_OF_ASC_NODE>308.6756</RA_OF_ASC_NODE><ARG_OF_PERICENTER>18.9498</ARG_OF_PERICENTER><MEAN_ANOMALY>356.1551</MEAN_ANOMALY></meanElements><tleParameters><EPHEMERIS_TYPE>0</EPHEMERIS_TYPE><CLASSIFICATION_TYPE>U</CLASSIFICATION_TYPE><NORAD_CAT_ID>64511</NORAD_CAT_ID><ELEMENT_SET_NO>999</ELEMENT_SET_NO><REV_AT_EPOCH>429</REV_AT_EPOCH><BSTAR>-.54677243E-1</BSTAR><MEAN_MOTION_DOT>-.1378105E-1</MEAN_MOTION_DOT><MEAN_MOTION_DDOT>0</MEAN_MOTION_DDOT></tleParameters></data></segment></body></omm>
<omm id="CCSDS_OMM_VERS" version="2.0">
<header><CREATION_DATE/><ORIGINATOR/></header><body><segment><metadata><OBJECT_NAME>KUIPER-00052</OBJECT_NAME><OBJECT_ID>2025-134N</OBJECT_ID><CENTER_NAME>EARTH</CENTER_NAME><REF_FRAME>TEME</REF_FRAME><TIME_SYSTEM>UTC</TIME_SYSTEM><MEAN_ELEMENT_THEORY>SGP4</MEAN_ELEMENT_THEORY></metadata><data><meanElements><EPOCH>2025-09-10T04:19:26.337216</EPOCH><MEAN_MOTION>15.56789312</MEAN_MOTION><ECCENTRICITY>.00074108</ECCENTRICITY><INCLINATION>51.8754</INCLINATION><RA_OF_ASC_NODE>305.2268</RA_OF_ASC_NODE><ARG_OF_PERICENTER>44.3362</ARG_OF_PERICENTER><MEAN_ANOMALY>315.8225</MEAN_ANOMALY></meanElements><tleParameters><EPHEMERIS_TYPE>0</EPHEMERIS_TYPE><CLASSIFICATION_TYPE>U</CLASSIFICATION_TYPE><NORAD_CAT_ID>64512</NORAD_CAT_ID><ELEMENT_SET_NO>999</ELEMENT_SET_NO><REV_AT_EPOCH>1342</REV_AT_EPOCH><BSTAR>.12295225E-2</BSTAR><MEAN_MOTION_DOT>.90378E-3</MEAN_MOTION_DOT><MEAN_MOTION_DDOT>0</MEAN_MOTION_DDOT></tleParameters></data></segment></body></omm>

</ndm>
