KUIPER-00044            
1 64505U 25134F   25253.58064609  .00002897  00000+0  40908-3 0  9999
2 64505  51.8990 323.0407 0014417  39.3097 320.8909 14.79893365 13214
KUIPER-00046            
1 64506U 25134G   25253.83335648 -.00066436  00000+0 -84953-2 0  9990
2 64506  51.8968 318.2967 0011478  47.4754 245.9842 14.81217581  5678
KUIPER-00047            
1 64507U 25134H   25253.19106293  .00026267  00000+0  75804-3 0  9994
2 64507  51.8623 311.8249 0012079  48.7803 311.4222 15.35442434 13336
KUIPER-00048            
1 64508U 25134J   25252.88979052  .00020604  00000+0  55407-3 0  9997
2 64508  51.8780 312.1884 0005983  32.5010 327.6345 15.37842741 13306
KUIPER-00049            
1 64509U 25134K   25253.78486907 -.00288999  00000+0 -12304-1 0  9992
2 64509  51.8741 309.1792 0007754  33.2356 326.9110 15.23737788 13421
KUIPER-00050            
1 64510U 25134L   25253.79480311 -.00277479  00000+0 -13474-1 0  9998
2 64510  51.8757 309.9929 0007759  62.2073 297.9692 15.19222574 13411
KUIPER-00051            
1 64511U 25134M   25253.83335648 -.01378105  00000+0 -54677-1 0  9995
2 64511  51.8782 308.6756 0006604  18.9498 356.1551 15.27989503  4290
KUIPER-00052            
1 64512U 25134N   25253.18016594  .00090378  00000+0  12295-2 0  9991
2 64512  51.8754 305.2268 0007410  44.3362 315.8225 15.56789312 13423
